GLOBALSTAR M023         
1 25621U 99004A   25264.01737686 -.00000034  00000+0  38982-3 0  9995
2 25621  52.0091 121.6357 0010032 343.1110 189.5427 12.62506715227832
GLOBALSTAR M040         
1 25622U 99004B   25264.34648795 -.00000030  00000+0  41282-3 0  9997
2 25622  51.9901 124.9306 0000156 145.8843  25.6248 12.62017614227394
GLOBALSTAR M036         
1 25623U 99004C   25264.48120821 -.00000032  00000+0  74055-3 0  9994
2 25623  52.0000 346.5100 0010610 232.9320 140.8027 11.86609082190413
GLOBALSTAR M038         
1 25624U 99004D   25264.46227920 -.00000069  00000+0  21513-3 0  9992
2 25624  51.9962 154.3100 0001050 263.7921 267.4643 12.32532134214244
GLOBALSTAR M022         
1 25649U 99012A   25264.58427861 -.00000066  00000+0  25093-3 0  9991
2 25649  52.0066  28.8471 0002601  20.9811  63.5272 12.02502561187978
GLOBALSTAR M041         
1 25650U 99012B   25264.44080947 -.00000091  00000+0 -66945-4 0  9999
2 25650  52.0010 273.6279 0001454 141.1101 218.9841 11.96682660189801
GLOBALSTAR M046         
1 25651U 99012C   25264.45170968 -.00000143  00000+0 -59475-3 0  9991
2 25651  52.0082 335.8323 0002445  92.9285 280.4665 12.09413301195319
GLOBALSTAR M037         
1 25652U 99012D   25264.47634362 -.00000104  00000+0 -25062-5 0  9991
2 25652  51.9989 250.8221 0002338  42.4433 134.6189 12.62451313223433
